{
  "type": "FeatureCollection",
  "features": [
    {
      "type": "Feature",
      "properties": {
        "norad_id": 41019,
        "name": "GPS BIIF-11 (PRN 10)",
        "group": "gnss",
        "lat": -27.18872003619837,
        "lon": 18.772803875743858,
        "alt_km": 20219.758598274926,
        "timestamp": "2025-12-03T06:58:43.478556+00:00",
        "meta_object_name": "GPS BIIF-11 (PRN 10)",
        "meta_object_id": "2015-062A",
        "meta_epoch": "2025-12-01T08:13:28.844544",
        "meta_mean_motion": 2.00567003,
        "meta_eccentricity": 0.01104814,
        "meta_inclination": 56.824,
        "meta_ra_of_asc_node": 38.4433,
        "meta_arg_of_pericenter": 229.6355,
        "meta_mean_anomaly": 129.443,
        "meta_ephemeris_type": 0,
        "meta_classification_type": "U",
        "meta_norad_cat_id": 41019,
        "meta_element_set_no": 999,
        "meta_rev_at_epoch": 7386,
        "meta_bstar": 0,
        "meta_mean_motion_dot": -6.4e-07,
        "meta_mean_motion_ddot": 0,
        "tle_line1": "1 41019U 15062A   25335.34269496 -.00000064  00000+0  00000+0 0  9999",
        "tle_line2": "2 41019  56.8240  38.4433 0110481 229.6355 129.4430  2.00567003 73864"
      },
      "geometry": {
        "type": "Point",
        "coordinates": [
          18.772803875743858,
          -27.18872003619837
        ]
      }
    },
    {
      "type": "Feature",
      "properties": {
        "norad_id": 41028,
        "name": "GSAT-15 (GAGAN/PRN 139)",
        "group": "gnss",
        "lat": -0.011613256814854676,
        "lon": -89.44477190839207,
        "alt_km": 35775.98038903792,
        "timestamp": "2025-12-03T06:58:43.478577+00:00",
        "meta_object_name": "GSAT-15 (GAGAN/PRN 139)",
        "meta_object_id": "2015-065A",
        "meta_epoch": "2025-12-02T18:54:08.951040",
        "meta_mean_motion": 1.00272085,
        "meta_eccentricity": 0.000301,
        "meta_inclination": 0.0181,
        "meta_ra_of_asc_node": 61.2511,
        "meta_arg_of_pericenter": 171.2853,
        "meta_mean_anomaly": 216.3833,
        "meta_ephemeris_type": 0,
        "meta_classification_type": "U",
        "meta_norad_cat_id": 41028,
        "meta_element_set_no": 999,
        "meta_rev_at_epoch": 3683,
        "meta_bstar": 0,
        "meta_mean_motion_dot": -2.38e-06,
        "meta_mean_motion_ddot": 0,
        "tle_line1": "1 41028U 15065A   25336.78760360 -.00000238  00000+0  00000+0 0  9990",
        "tle_line2": "2 41028   0.0181  61.2511 0003010 171.2853 216.3833  1.00272085 36835"
      },
      "geometry": {
        "type": "Point",
        "coordinates": [
          -89.44477190839207,
          -0.011613256814854676
        ]
      }
    },
    {
      "type": "Feature",
      "properties": {
        "norad_id": 41174,
        "name": "GSAT0209 (GALILEO 12)",
        "group": "gnss",
        "lat": 52.942000586595256,
        "lon": -137.96578472101524,
        "alt_km": 23218.097689212365,
        "timestamp": "2025-12-03T06:58:43.478599+00:00",
        "meta_object_name": "GSAT0209 (GALILEO 12)",
        "meta_object_id": "2015-079A",
        "meta_epoch": "2025-12-01T22:43:10.411392",
        "meta_mean_motion": 1.70474306,
        "meta_eccentricity": 0.0002352,
        "meta_inclination": 55.7062,
        "meta_ra_of_asc_node": 106.6773,
        "meta_arg_of_pericenter": 357.4206,
        "meta_mean_anomaly": 2.5431,
        "meta_ephemeris_type": 0,
        "meta_classification_type": "U",
        "meta_norad_cat_id": 41174,
        "meta_element_set_no": 999,
        "meta_rev_at_epoch": 6141,
        "meta_bstar": 0,
        "meta_mean_motion_dot": 3.5e-07,
        "meta_mean_motion_ddot": 0,
        "tle_line1": "1 41174U 15079A   25335.94664828  .00000035  00000+0  00000+0 0  9990",
        "tle_line2": "2 41174  55.7062 106.6773 0002352 357.4206   2.5431  1.70474306 61412"
      },
      "geometry": {
        "type": "Point",
        "coordinates": [
          -137.96578472101524,
          52.942000586595256
        ]
      }
    },
    {
      "type": "Feature",
      "properties": {
        "norad_id": 41175,
        "name": "GSAT0208 (GALILEO 11)",
        "group": "gnss",
        "lat": -24.544699401851783,
        "lon": 88.467427365998,
        "alt_km": 23221.25324173664,
        "timestamp": "2025-12-03T06:58:43.478618+00:00",
        "meta_object_name": "GSAT0208 (GALILEO 11)",
        "meta_object_id": "2015-079B",
        "meta_epoch": "2025-11-30T09:46:10.644960",
        "meta_mean_motion": 1.70474193,
        "meta_eccentricity": 0.00018872,
        "meta_inclination": 55.7038,
        "meta_ra_of_asc_node": 106.7167,
        "meta_arg_of_pericenter": 11.7228,
        "meta_mean_anomaly": 348.2564,
        "meta_ephemeris_type": 0,
        "meta_classification_type": "U",
        "meta_norad_cat_id": 41175,
        "meta_element_set_no": 999,
        "meta_rev_at_epoch": 6180,
        "meta_bstar": 0,
        "meta_mean_motion_dot": 4.8e-07,
        "meta_mean_motion_ddot": 0,
        "tle_line1": "1 41175U 15079B   25334.40706765  .00000048  00000+0  00000+0 0  9992",
        "tle_line2": "2 41175  55.7038 106.7167 0001887  11.7228 348.2564  1.70474193 61804"
      },
      "geometry": {
        "type": "Point",
        "coordinates": [
          88.467427365998,
          -24.544699401851783
        ]
      }
    },
    {
      "type": "Feature",
      "properties": {
        "norad_id": 41241,
        "name": "IRNSS-1E",
        "group": "gnss",
        "lat": -23.11202227348255,
        "lon": -76.0193916936071,
        "alt_km": 35716.06650123546,
        "timestamp": "2025-12-03T06:58:43.478636+00:00",
        "meta_object_name": "IRNSS-1E",
        "meta_object_id": "2016-003A",
        "meta_epoch": "2025-12-02T15:46:14.293632",
        "meta_mean_motion": 1.00278203,
        "meta_eccentricity": 0.00219463,
        "meta_inclination": 32.8036,
        "meta_ra_of_asc_node": 62.6001,
        "meta_arg_of_pericenter": 186.4596,
        "meta_mean_anomaly": 170.9534,
        "meta_ephemeris_type": 0,
        "meta_classification_type": "U",
        "meta_norad_cat_id": 41241,
        "meta_element_set_no": 999,
        "meta_rev_at_epoch": 3610,
        "meta_bstar": 0,
        "meta_mean_motion_dot": -3.03e-06,
        "meta_mean_motion_ddot": 0,
        "tle_line1": "1 41241U 16003A   25336.65710988 -.00000303  00000+0  00000+0 0  9990",
        "tle_line2": "2 41241  32.8036  62.6001 0021946 186.4596 170.9534  1.00278203 36104"
      },
      "geometry": {
        "type": "Point",
        "coordinates": [
          -76.0193916936071,
          -23.11202227348255
        ]
      }
    },
    {
      "type": "Feature",
      "properties": {
        "norad_id": 41328,
        "name": "GPS BIIF-12 (PRN 32)",
        "group": "gnss",
        "lat": -55.26914027894623,
        "lon": 1.4407602817220935,
        "alt_km": 19965.047718036534,
        "timestamp": "2025-12-03T06:58:43.478661+00:00",
        "meta_object_name": "GPS BIIF-12 (PRN 32)",
        "meta_object_id": "2016-007A",
        "meta_epoch": "2025-11-30T22:13:59.162880",
        "meta_mean_motion": 2.00561199,
        "meta_eccentricity": 0.00916001,
        "meta_inclination": 55.3993,
        "meta_ra_of_asc_node": 97.326,
        "meta_arg_of_pericenter": 243.286,
        "meta_mean_anomaly": 115.7578,
        "meta_ephemeris_type": 0,
        "meta_classification_type": "U",
        "meta_norad_cat_id": 41328,
        "meta_element_set_no": 999,
        "meta_rev_at_epoch": 7186,
        "meta_bstar": 0,
        "meta_mean_motion_dot": 2.3e-07,
        "meta_mean_motion_ddot": 0,
        "tle_line1": "1 41328U 16007A   25334.92637920  .00000023  00000+0  00000+0 0  9990",
        "tle_line2": "2 41328  55.3993  97.3260 0091600 243.2860 115.7578  2.00561199 71861"
      },
      "geometry": {
        "type": "Point",
        "coordinates": [
          1.4407602817220935,
          -55.26914027894623
        ]
      }
    },
    {
      "type": "Feature",
      "properties": {
        "norad_id": 41330,
        "name": "COSMOS 2514 (751)",
        "group": "gnss",
        "lat": 51.900197622648406,
        "lon": 103.46191611724687,
        "alt_km": 19129.54038801272,
        "timestamp": "2025-12-03T06:58:43.478679+00:00",
        "meta_object_name": "COSMOS 2514 (751)",
        "meta_object_id": "2016-008A",
        "meta_epoch": "2025-12-02T04:41:58.161984",
        "meta_mean_motion": 2.13102491,
        "meta_eccentricity": 0.00124931,
        "meta_inclination": 65.1398,
        "meta_ra_of_asc_node": 319.7653,
        "meta_arg_of_pericenter": 219.8518,
        "meta_mean_anomaly": 140.0636,
        "meta_ephemeris_type": 0,
        "meta_classification_type": "U",
        "meta_norad_cat_id": 41330,
        "meta_element_set_no": 999,
        "meta_rev_at_epoch": 7642,
        "meta_bstar": 0,
        "meta_mean_motion_dot": -3.3e-07,
        "meta_mean_motion_ddot": 0,
        "tle_line1": "1 41330U 16008A   25336.19581206 -.00000033  00000+0  00000+0 0  9992",
        "tle_line2": "2 41330  65.1398 319.7653 0012493 219.8518 140.0636  2.13102491 76424"
      },
      "geometry": {
        "type": "Point",
        "coordinates": [
          103.46191611724687,
          51.900197622648406
        ]
      }
    }
  ]
}